{"type": "FeatureCollection", "features": [ {"type": "Feature", "properties": {"norad_id": 41785, "name": "ALSAT 1B", "group": "resource", "lat": -40.458585939542935, "lon": 18.809480311191287, "alt_km": 662.8305032280296, "timestamp": "2025-12-26T22:28:05.436697+00:00", "meta": {"OBJECT_NAME": "ALSAT 1B", "OBJECT_ID": "2016-059C", "EPOCH": "2025-12-26T17:45:34.825824", "MEAN_MOTION": 14.72089773, "ECCENTRICITY": 0.0010721, "INCLINATION": 97.7812, "RA_OF_ASC_NODE": 11.9249, "ARG_OF_PERICENTER": 64.2494, "MEAN_ANOMALY": 295.9819, "EPHEMERIS_TYPE": 0, "CLASSIFICATION_TYPE": "U", "NORAD_CAT_ID": 41785, "ELEMENT_SET_NO": 999, "REV_AT_EPOCH": 49520, "BSTAR": 9.8152e-05, "MEAN_MOTION_DOT": 5.71e-06, "MEAN_MOTION_DDOT": 0}, "tle": {"line1": "1 41785U 16059C   25360.73998641  .00000571  00000+0  98152-4 0  9990", "line2": "2 41785  97.7812  11.9249 0010721  64.2494 295.9819 14.72089773495208"}}, "geometry": {"type": "Point", "coordinates": [18.809480311191287, -40.458585939542935]}}, {"type": "Feature", "properties": {"norad_id": 41787, "name": "PATHFINDER 1", "group": "resource", "lat": 23.81314567722316, "lon": -173.47443500619795, "alt_km": 678.7771901052729, "timestamp": "2025-12-26T22:28:05.436707+00:00", "meta": {"OBJECT_NAME": "PATHFINDER 1", "OBJECT_ID": "2016-059E", "EPOCH": "2025-12-26T13:34:46.547328", "MEAN_MOTION": 14.67345556, "ECCENTRICITY": 0.0029523, "INCLINATION": 97.8139, "RA_OF_ASC_NODE": 2.6979, "ARG_OF_PERICENTER": 38.9477, "MEAN_ANOMALY": 321.3847, "EPHEMERIS_TYPE": 0, "CLASSIFICATION_TYPE": "U", "NORAD_CAT_ID": 41787, "ELEMENT_SET_NO": 999, "REV_AT_EPOCH": 49439, "BSTAR": 0.00017286, "MEAN_MOTION_DOT": 9.36e-06, "MEAN_MOTION_DDOT": 0}, "tle": {"line1": "1 41787U 16059E   25360.56581652  .00000936  00000+0  17286-3 0  9996", "line2": "2 41787  97.8139   2.6979 0029523  38.9477 321.3847 14.67345556494391"}}, "geometry": {"type": "Point", "coordinates": [-173.47443500619795, 23.81314567722316]}}, {"type": "Feature", "properties": {"norad_id": 41790, "name": "SCATSAT 1", "group": "resource", "lat": 20.969999068062453, "lon": 54.63616994476331, "alt_km": 613.6979868315011, "timestamp": "2025-12-26T22:28:05.436717+00:00", "meta": {"OBJECT_NAME": "SCATSAT 1", "OBJECT_ID": "2016-059H", "EPOCH": "2025-12-26T14:15:15.732576", "MEAN_MOTION": 14.78980653, "ECCENTRICITY": 0.005643, "INCLINATION": 98.1445, "RA_OF_ASC_NODE": 57.4361, "ARG_OF_PERICENTER": 84.3615, "MEAN_ANOMALY": 276.4027, "EPHEMERIS_TYPE": 0, "CLASSIFICATION_TYPE": "U", "NORAD_CAT_ID": 41790, "ELEMENT_SET_NO": 999, "REV_AT_EPOCH": 7607, "BSTAR": 0.00021562, "MEAN_MOTION_DOT": 1.578e-05, "MEAN_MOTION_DDOT": 0}, "tle": {"line1": "1 41790U 16059H   25360.59393209  .00001578  00000+0  21562-3 0  9997", "line2": "2 41790  98.1445  57.4361 0056430  84.3615 276.4027 14.78980653 76074"}}, "geometry": {"type": "Point", "coordinates": [54.63616994476331, 20.969999068062453]}}, {"type": "Feature", "properties": {"norad_id": 41875, "name": "GOKTURK 1A", "group": "resource", "lat": 0.9791798885224529, "lon": -107.02788142624031, "alt_km": 686.8835087497418, "timestamp": "2025-12-26T22:28:05.436728+00:00", "meta": {"OBJECT_NAME": "GOKTURK 1A", "OBJECT_ID": "2016-073A", "EPOCH": "2025-12-26T19:10:49.164096", "MEAN_MOTION": 14.62795525, "ECCENTRICITY": 0.0001289, "INCLINATION": 98.1423, "RA_OF_ASC_NODE": 252.9772, "ARG_OF_PERICENTER": 82.7111, "MEAN_ANOMALY": 277.4237, "EPHEMERIS_TYPE": 0, "CLASSIFICATION_TYPE": "U", "NORAD_CAT_ID": 41875, "ELEMENT_SET_NO": 999, "REV_AT_EPOCH": 48362, "BSTAR": 0.00010071, "MEAN_MOTION_DOT": 4.67e-06, "MEAN_MOTION_DDOT": 0}, "tle": {"line1": "1 41875U 16073A   25360.79918014  .00000467  00000+0  10071-3 0  9995", "line2": "2 41875  98.1423 252.9772 0001289  82.7111 277.4237 14.62795525483629"}}, "geometry": {"type": "Point", "coordinates": [-107.02788142624031, 0.9791798885224529]}}, {"type": "Feature", "properties": {"norad_id": 41877, "name": "RESOURCESAT-2A", "group": "resource", "lat": 69.33344059950018, "lon": -85.12422737768108, "alt_km": 813.0957686086158, "timestamp": "2025-12-26T22:28:05.436738+00:00", "meta": {"OBJECT_NAME": "RESOURCESAT-2A", "OBJECT_ID": "2016-074A", "EPOCH": "2025-12-26T18:34:47.920800", "MEAN_MOTION": 14.21605461, "ECCENTRICITY": 0.0001657, "INCLINATION": 98.7733, "RA_OF_ASC_NODE": 70.5471, "ARG_OF_PERICENTER": 195.7088, "MEAN_ANOMALY": 164.4038, "EPHEMERIS_TYPE": 0, "CLASSIFICATION_TYPE": "U", "NORAD_CAT_ID": 41877, "ELEMENT_SET_NO": 999, "REV_AT_EPOCH": 46980, "BSTAR": 7.0944e-05, "MEAN_MOTION_DOT": 1.11e-06, "MEAN_MOTION_DDOT": 0}, "tle": {"line1": "1 41877U 16074A   25360.77416575  .00000111  00000+0  70944-4 0  9993", "line2": "2 41877  98.7733  70.5471 0001657 195.7088 164.4038 14.21605461469800"}}, "geometry": {"type": "Point", "coordinates": [-85.12422737768108, 69.33344059950018]}}, {"type": "Feature", "properties": {"norad_id": 41948, "name": "CARTOSAT-2D", "group": "resource", "lat": 56.941092667853525, "lon": 46.63947535464487, "alt_km": 500.6857436416112, "timestamp": "2025-12-26T22:28:05.436748+00:00", "meta": {"OBJECT_NAME": "CARTOSAT-2D", "OBJECT_ID": "2017-008A", "EPOCH": "2025-12-26T17:28:22.020096", "MEAN_MOTION": 15.192028, "ECCENTRICITY": 0.0005378, "INCLINATION": 97.4364, "RA_OF_ASC_NODE": 58.0111, "ARG_OF_PERICENTER": 113.3513, "MEAN_ANOMALY": 246.8288, "EPHEMERIS_TYPE": 0, "CLASSIFICATION_TYPE": "U", "NORAD_CAT_ID": 41948, "ELEMENT_SET_NO": 999, "REV_AT_EPOCH": 49139, "BSTAR": 0.00021253, "MEAN_MOTION_DOT": 4.407e-05, "MEAN_MOTION_DDOT": 0}, "tle": {"line1": "1 41948U 17008A   25360.72803264  .00004407  00000+0  21253-3 0  9990", "line2": "2 41948  97.4364  58.0111 0005378 113.3513 246.8288 15.19202800491399"}}, "geometry": {"type": "Point", "coordinates": [46.63947535464487, 56.941092667853525]}}, {"type": "Feature", "properties": {"norad_id": 42063, "name": "SENTINEL-2B", "group": "resource", "lat": -7.380637943801713, "lon": -107.93749671755371, "alt_km": 792.9832996621744, "timestamp": "2025-12-26T22:28:05.436758+00:00", "meta": {"OBJECT_NAME": "SENTINEL-2B", "OBJECT_ID": "2017-013A", "EPOCH": "2025-12-26T18:14:19.687776", "MEAN_MOTION": 14.30816982, "ECCENTRICITY": 0.0001183, "INCLINATION": 98.5695, "RA_OF_ASC_NODE": 73.008, "ARG_OF_PERICENTER": 88.4776, "MEAN_ANOMALY": 271.6543, "EPHEMERIS_TYPE": 0, "CLASSIFICATION_TYPE": "U", "NORAD_CAT_ID": 42063, "ELEMENT_SET_NO": 999, "REV_AT_EPOCH": 45998, "BSTAR": 0.00014152, "MEAN_MOTION_DOT": 3.27e-06, "MEAN_MOTION_DDOT": 0}, "tle": {"line1": "1 42063U 17013A   25360.75995009  .00000327  00000+0  14152-3 0  9994", "line2": "2 42063  98.5695  73.0080 0001183  88.4776 271.6543 14.30816982459985"}}, "geometry": {"type": "Point", "coordinates": [-107.93749671755371, -7.380637943801713]}}, {"type": "Feature", "properties": {"norad_id": 42767, "name": "CARTOSAT-2E", "group": "resource", "lat": -32.66834654571816, "lon": 63.15101450637085, "alt_km": 516.1112949214858, "timestamp": "2025-12-26T22:28:05.436769+00:00", "meta": {"OBJECT_NAME": "CARTOSAT-2E", "OBJECT_ID": "2017-036C", "EPOCH": "2025-12-26T17:52:14.952864", "MEAN_MOTION": 15.19212717, "ECCENTRICITY": 0.0002618, "INCLINATION": 97.4535, "RA_OF_ASC_NODE": 58.1466, "ARG_OF_PERICENTER": 167.0617, "MEAN_ANOMALY": 193.0685, "EPHEMERIS_TYPE": 0, "CLASSIFICATION_TYPE": "U", "NORAD_CAT_ID": 42767, "ELEMENT_SET_NO": 999, "REV_AT_EPOCH": 47196, "BSTAR": 0.00027964, "MEAN_MOTION_DOT": 5.82e-05, "MEAN_MOTION_DDOT": 0}, "tle": {"line1": "1 42767U 17036C   25360.74461751  .00005820  00000+0  27964-3 0  9999", "line2": "2 42767  97.4535  58.1466 0002618 167.0617 193.0685 15.19212717471961"}}, "geometry": {"type": "Point", "coordinates": [63.15101450637085, -32.66834654571816]}}, {"type": "Feature", "properties": {"norad_id": 42920, "name": "FORMOSAT-5", "group": "resource", "lat": 48.94863047698437, "lon": -95.44845789343638, "alt_km": 722.4813617268273, "timestamp": "2025-12-26T22:28:05.436779+00:00", "meta": {"OBJECT_NAME": "FORMOSAT-5", "OBJECT_ID": "2017-049A", "EPOCH": "2025-12-26T18:33:29.513664", "MEAN_MOTION": 14.50768665, "ECCENTRICITY": 0.0009856, "INCLINATION": 98.2437, "RA_OF_ASC_NODE": 74.8091, "ARG_OF_PERICENTER": 253.4548, "MEAN_ANOMALY": 106.5565, "EPHEMERIS_TYPE": 0, "CLASSIFICATION_TYPE": "U", "NORAD_CAT_ID": 42920, "ELEMENT_SET_NO": 999, "REV_AT_EPOCH": 44167, "BSTAR": 7.7222e-05, "MEAN_MOTION_DOT": 2.6e-06, "MEAN_MOTION_DDOT": 0}, "tle": {"line1": "1 42920U 17049A   25360.77325826  .00000260  00000+0  77222-4 0  9995", "line2": "2 42920  98.2437  74.8091 0009856 253.4548 106.5565 14.50768665441678"}}, "geometry": {"type": "Point", "coordinates": [-95.44845789343638, 48.94863047698437]}}, {"type": "Feature", "properties": {"norad_id": 42969, "name": "SENTINEL-5P", "group": "resource", "lat": 8.37499327880229, "lon": -61.90825594138453, "alt_km": 828.6209212627964, "timestamp": "2025-12-26T22:28:05.436790+00:00", "meta": {"OBJECT_NAME": "SENTINEL-5P", "OBJECT_ID": "2017-064A", "EPOCH": "2025-12-26T17:21:12.169728", "MEAN_MOTION": 14.19520951, "ECCENTRICITY": 0.0001066, "INCLINATION": 98.7802, "RA_OF_ASC_NODE": 299.1843, "ARG_OF_PERICENTER": 91.0221, "MEAN_ANOMALY": 269.1077, "EPHEMERIS_TYPE": 0, "CLASSIFICATION_TYPE": "U", "NORAD_CAT_ID": 42969, "ELEMENT_SET_NO": 999, "REV_AT_EPOCH": 42509, "BSTAR": 6.9246e-05, "MEAN_MOTION_DOT": 1.02e-06, "MEAN_MOTION_DDOT": 0}, "tle": {"line1": "1 42969U 17064A   25360.72305752  .00000102  00000+0  69246-4 0  9998", "line2": "2 42969  98.7802 299.1843 0001066  91.0221 269.1077 14.19520951425099"}}, "geometry": {"type": "Point", "coordinates": [-61.90825594138453, 8.37499327880229]}}]}